{
    "links": {
        "self": "http://www.neowsapp.com/rest/v1/neo/54016215?api_key=iIulBulltgU6a56xZRHN4H3l9WmuAYTsLGpBGhQ2"
    },
    "id": "54016215",
    "neo_reference_id": "54016215",
    "name": "(2020 FX)",
    "designation": "2020 FX",
    "nasa_jpl_url": "http://ssd.jpl.nasa.gov/sbdb.cgi?sstr=54016215",
    "absolute_magnitude_h": 24.636,
    "estimated_diameter": {
        "kilometers": {
            "estimated_diameter_min": 0.0314307668,
            "estimated_diameter_max": 0.0702813312
        },
        "meters": {
            "estimated_diameter_min": 31.4307668148,
            "estimated_diameter_max": 70.2813311828
        },
        "miles": {
            "estimated_diameter_min": 0.019530167,
            "estimated_diameter_max": 0.043670781
        },
        "feet": {
            "estimated_diameter_min": 103.1193169966,
            "estimated_diameter_max": 230.5818025978
        }
    },
    "is_potentially_hazardous_asteroid": false,
    "close_approach_data": [
        {
            "close_approach_date": "2017-03-19",
            "close_approach_date_full": "2017-Mar-19 20:13",
            "epoch_date_close_approach": 1489954380000,
            "relative_velocity": {
                "kilometers_per_second": "11.9071095982",
                "kilometers_per_hour": "42865.5945535618",
                "miles_per_hour": "26635.0134602395"
            },
            "miss_distance": {
                "astronomical": "0.2500540618",
                "lunar": "97.2710300402",
                "kilometers": "37407555.030128366",
                "miles": "23243976.8581928108"
            },
            "orbiting_body": "Earth"
        },
        {
            "close_approach_date": "2020-03-20",
            "close_approach_date_full": "2020-Mar-20 13:14",
            "epoch_date_close_approach": 1584710040000,
            "relative_velocity": {
                "kilometers_per_second": "9.8103848186",
                "kilometers_per_hour": "35317.3853470113",
                "miles_per_hour": "21944.8498007582"
            },
            "miss_distance": {
                "astronomical": "0.0989793315",
                "lunar": "38.5029599535",
                "kilometers": "14807097.166423905",
                "miles": "9200703.536923689"
            },
            "orbiting_body": "Earth"
        },
        {
            "close_approach_date": "2023-03-20",
            "close_approach_date_full": "2023-Mar-20 08:30",
            "epoch_date_close_approach": 1679301000000,
            "relative_velocity": {
                "kilometers_per_second": "10.4968569351",
                "kilometers_per_hour": "37788.6849663852",
                "miles_per_hour": "23480.4192781408"
            },
            "miss_distance": {
                "astronomical": "0.2464655324",
                "lunar": "95.8750921036",
                "kilometers": "36870718.675455988",
                "miles": "22910402.2154611144"
            },
            "orbiting_body": "Earth"
        }
    ],
    "orbital_data": {
        "orbit_id": "3",
        "orbit_determination_date": "2020-03-22 06:08:57",
        "first_observation_date": "2020-03-16",
        "last_observation_date": "2020-03-22",
        "data_arc_in_days": 6,
        "observations_used": 29,
        "orbit_uncertainty": "8",
        "minimum_orbit_intersection": ".098967",
        "jupiter_tisserand_invariant": "4.881",
        "epoch_osculation": "2458926.5",
        "eccentricity": ".173415811786434",
        "semi_major_axis": "1.320972326766277",
        "inclination": "18.36290398023411",
        "ascending_node_longitude": "357.9274486295533",
        "orbital_period": "554.5478250147219",
        "perihelion_distance": "1.091894838372689",
        "perihelion_argument": "191.8289388910331",
        "aphelion_distance": "1.550049815159866",
        "perihelion_time": "2458939.253660249441",
        "mean_anomaly": "351.7206100489586",
        "mean_motion": ".6491775528836362",
        "equinox": "J2000",
        "orbit_class": {
            "orbit_class_type": "AMO",
            "orbit_class_description": "Near-Earth asteroid orbits similar to that of 1221 Amor",
            "orbit_class_range": "1.017 AU < q (perihelion) < 1.3 AU"
        }
    },
    "is_sentry_object": false
}